{
  "type": "FeatureCollection",
  "features": [
    {
      "type": "Feature",
      "properties": {
        "norad_id": 66575,
        "name": "STARLINK-35810",
        "group": "last-30-days",
        "lat": -34.207744730651484,
        "lon": 124.45974820994273,
        "alt_km": 355.0757455135508,
        "timestamp": "2025-12-04T05:42:42.159028+00:00",
        "meta_object_name": "STARLINK-35810",
        "meta_object_id": "2025-268U",
        "meta_epoch": "2025-12-03T22:00:03.000096",
        "meta_mean_motion": 15.7332182,
        "meta_eccentricity": 0.00015833,
        "meta_inclination": 42.999,
        "meta_ra_of_asc_node": 173.2512,
        "meta_arg_of_pericenter": 268.7406,
        "meta_mean_anomaly": 14.5453,
        "meta_ephemeris_type": 0,
        "meta_classification_type": "U",
        "meta_norad_cat_id": 66575,
        "meta_element_set_no": 999,
        "meta_rev_at_epoch": 325,
        "meta_bstar": -0.014940014,
        "meta_mean_motion_dot": -0.01857565,
        "meta_mean_motion_ddot": 0,
        "tle_line1": "1 66575U 25268U   25337.91670139 -.01857565  00000+0 -14940-1 0  9995",
        "tle_line2": "2 66575  42.9990 173.2512 0001583 268.7406  14.5453 15.73321820  3259"
      },
      "geometry": {
        "type": "Point",
        "coordinates": [
          124.45974820994273,
          -34.207744730651484
        ]
      }
    },
    {
      "type": "Feature",
      "properties": {
        "norad_id": 66576,
        "name": "STARLINK-35814",
        "group": "last-30-days",
        "lat": -33.297905513378886,
        "lon": 126.4821355699233,
        "alt_km": 355.1607971448484,
        "timestamp": "2025-12-04T05:42:42.159038+00:00",
        "meta_object_name": "STARLINK-35814",
        "meta_object_id": "2025-268V",
        "meta_epoch": "2025-12-03T22:00:03.000096",
        "meta_mean_motion": 15.73318313,
        "meta_eccentricity": 0.00013718,
        "meta_inclination": 42.9989,
        "meta_ra_of_asc_node": 173.2463,
        "meta_arg_of_pericenter": 269.8412,
        "meta_mean_anomaly": 15.367,
        "meta_ephemeris_type": 0,
        "meta_classification_type": "U",
        "meta_norad_cat_id": 66576,
        "meta_element_set_no": 999,
        "meta_rev_at_epoch": 325,
        "meta_bstar": -0.014927073,
        "meta_mean_motion_dot": -0.01855741,
        "meta_mean_motion_ddot": 0,
        "tle_line1": "1 66576U 25268V   25337.91670139 -.01855741  00000+0 -14927-1 0  9995",
        "tle_line2": "2 66576  42.9989 173.2463 0001371 269.8412  15.3670 15.73318313  3250"
      },
      "geometry": {
        "type": "Point",
        "coordinates": [
          126.4821355699233,
          -33.297905513378886
        ]
      }
    },
    {
      "type": "Feature",
      "properties": {
        "norad_id": 66577,
        "name": "STARLINK-35815",
        "group": "last-30-days",
        "lat": -32.35586801946278,
        "lon": 128.4629476317258,
        "alt_km": 355.23481687015556,
        "timestamp": "2025-12-04T05:42:42.159050+00:00",
        "meta_object_name": "STARLINK-35815",
        "meta_object_id": "2025-268W",
        "meta_epoch": "2025-12-03T22:00:03.000096",
        "meta_mean_motion": 15.73321109,
        "meta_eccentricity": 0.00012821,
        "meta_inclination": 42.9991,
        "meta_ra_of_asc_node": 173.2419,
        "meta_arg_of_pericenter": 265.1979,
        "meta_mean_anomaly": 21.9251,
        "meta_ephemeris_type": 0,
        "meta_classification_type": "U",
        "meta_norad_cat_id": 66577,
        "meta_element_set_no": 999,
        "meta_rev_at_epoch": 325,
        "meta_bstar": -0.014947435,
        "meta_mean_motion_dot": -0.01858059,
        "meta_mean_motion_ddot": 0,
        "tle_line1": "1 66577U 25268W   25337.91670139 -.01858059  00000+0 -14947-1 0  9993",
        "tle_line2": "2 66577  42.9991 173.2419 0001282 265.1979  21.9251 15.73321109  3258"
      },
      "geometry": {
        "type": "Point",
        "coordinates": [
          128.4629476317258,
          -32.35586801946278
        ]
      }
    },
    {
      "type": "Feature",
      "properties": {
        "norad_id": 66578,
        "name": "STARLINK-35743",
        "group": "last-30-days",
        "lat": -31.38336760817493,
        "lon": 130.40114705797797,
        "alt_km": 355.178947232117,
        "timestamp": "2025-12-04T05:42:42.159061+00:00",
        "meta_object_name": "STARLINK-35743",
        "meta_object_id": "2025-268X",
        "meta_epoch": "2025-12-03T22:00:03.000096",
        "meta_mean_motion": 15.73317947,
        "meta_eccentricity": 0.00012977,
        "meta_inclination": 42.9991,
        "meta_ra_of_asc_node": 173.2368,
        "meta_arg_of_pericenter": 266.3675,
        "meta_mean_anomaly": 22.6754,
        "meta_ephemeris_type": 0,
        "meta_classification_type": "U",
        "meta_norad_cat_id": 66578,
        "meta_element_set_no": 999,
        "meta_rev_at_epoch": 325,
        "meta_bstar": -0.014923173,
        "meta_mean_motion_dot": -0.01855232,
        "meta_mean_motion_ddot": 0,
        "tle_line1": "1 66578U 25268X   25337.91670139 -.01855232  00000+0 -14923-1 0  9998",
        "tle_line2": "2 66578  42.9991 173.2368 0001297 266.3675  22.6754 15.73317947  3255"
      },
      "geometry": {
        "type": "Point",
        "coordinates": [
          130.40114705797797,
          -31.38336760817493
        ]
      }
    },
    {
      "type": "Feature",
      "properties": {
        "norad_id": 66579,
        "name": "STARLINK-35868",
        "group": "last-30-days",
        "lat": -30.382679027898504,
        "lon": 132.2979604829408,
        "alt_km": 354.9038342099702,
        "timestamp": "2025-12-04T05:42:42.159071+00:00",
        "meta_object_name": "STARLINK-35868",
        "meta_object_id": "2025-268Y",
        "meta_epoch": "2025-12-03T22:00:03.000096",
        "meta_mean_motion": 15.73318423,
        "meta_eccentricity": 0.00016478,
        "meta_inclination": 42.9989,
        "meta_ra_of_asc_node": 173.232,
        "meta_arg_of_pericenter": 269.7887,
        "meta_mean_anomaly": 21.1673,
        "meta_ephemeris_type": 0,
        "meta_classification_type": "U",
        "meta_norad_cat_id": 66579,
        "meta_element_set_no": 999,
        "meta_rev_at_epoch": 325,
        "meta_bstar": -0.014908816,
        "meta_mean_motion_dot": -0.01854014,
        "meta_mean_motion_ddot": 0,
        "tle_line1": "1 66579U 25268Y   25337.91670139 -.01854014  00000+0 -14909-1 0  9990",
        "tle_line2": "2 66579  42.9989 173.2320 0001647 269.7887  21.1673 15.73318423  3256"
      },
      "geometry": {
        "type": "Point",
        "coordinates": [
          132.2979604829408,
          -30.382679027898504
        ]
      }
    },
    {
      "type": "Feature",
      "properties": {
        "norad_id": 66580,
        "name": "STARLINK-35872",
        "group": "last-30-days",
        "lat": -29.35486983844333,
        "lon": 134.15696080852484,
        "alt_km": 354.88658211816346,
        "timestamp": "2025-12-04T05:42:42.159081+00:00",
        "meta_object_name": "STARLINK-35872",
        "meta_object_id": "2025-268Z",
        "meta_epoch": "2025-12-03T22:00:03.000096",
        "meta_mean_motion": 15.733176,
        "meta_eccentricity": 0.00016102,
        "meta_inclination": 42.999,
        "meta_ra_of_asc_node": 173.2277,
        "meta_arg_of_pericenter": 269.5609,
        "meta_mean_anomaly": 23.3117,
        "meta_ephemeris_type": 0,
        "meta_classification_type": "U",
        "meta_norad_cat_id": 66580,
        "meta_element_set_no": 999,
        "meta_rev_at_epoch": 325,
        "meta_bstar": -0.014887954,
        "meta_mean_motion_dot": -0.0185167,
        "meta_mean_motion_ddot": 0,
        "tle_line1": "1 66580U 25268Z   25337.91670139 -.01851670  00000+0 -14888-1 0  9993",
        "tle_line2": "2 66580  42.9990 173.2277 0001610 269.5609  23.3117 15.73317600  3254"
      },
      "geometry": {
        "type": "Point",
        "coordinates": [
          134.15696080852484,
          -29.35486983844333
        ]
      }
    },
    {
      "type": "Feature",
      "properties": {
        "norad_id": 66581,
        "name": "STARLINK-35744",
        "group": "last-30-days",
        "lat": -28.301983896023295,
        "lon": 135.97614935550317,
        "alt_km": 354.84396127562013,
        "timestamp": "2025-12-04T05:42:42.159091+00:00",
        "meta_object_name": "STARLINK-35744",
        "meta_object_id": "2025-268AA",
        "meta_epoch": "2025-12-03T22:00:03.000096",
        "meta_mean_motion": 15.73336867,
        "meta_eccentricity": 0.00015884,
        "meta_inclination": 42.9991,
        "meta_ra_of_asc_node": 173.2218,
        "meta_arg_of_pericenter": 269.5135,
        "meta_mean_anomaly": 25.2618,
        "meta_ephemeris_type": 0,
        "meta_classification_type": "U",
        "meta_norad_cat_id": 66581,
        "meta_element_set_no": 999,
        "meta_rev_at_epoch": 320,
        "meta_bstar": -0.015051206,
        "meta_mean_motion_dot": -0.01870621,
        "meta_mean_motion_ddot": 0,
        "tle_line1": "1 66581U 25268AA  25337.91670139 -.01870621  00000+0 -15051-1 0  9994",
        "tle_line2": "2 66581  42.9991 173.2218 0001588 269.5135  25.2618 15.73336867  3207"
      },
      "geometry": {
        "type": "Point",
        "coordinates": [
          135.97614935550317,
          -28.301983896023295
        ]
      }
    }
  ]
}